[{"OBJECT_NAME":"SHIYAN-30 01","OBJECT_ID":"2025-222A","EPOCH":"2026-03-09T22:25:49.198944","MEAN_MOTION":14.93180254,"ECCENTRICITY":0.00055411,"INCLINATION":34.9876,"RA_OF_ASC_NODE":137.1616,"ARG_OF_PERICENTER":247.7523,"MEAN_ANOMALY":112.2594,"EPHEMERIS_TYPE":0,"CLASSIFICATION_TYPE":"U","NORAD_CAT_ID":65851,"ELEMENT_SET_NO":999,"REV_AT_EPOCH":2420,"BSTAR":0.00031890213,"MEAN_MOTION_DOT":3.369e-5,"MEAN_MOTION_DDOT":0},{"OBJECT_NAME":"CZ-6A DEB","OBJECT_ID":"2022-151PZ","EPOCH":"2026-03-09T15:54:05.043168","MEAN_MOTION":14.93335269,"ECCENTRICITY":0.00656982,"INCLINATION":98.627,"RA_OF_ASC_NODE":159.0323,"ARG_OF_PERICENTER":132.4095,"MEAN_ANOMALY":228.2707,"EPHEMERIS_TYPE":0,"CLASSIFICATION_TYPE":"U","NORAD_CAT_ID":54888,"ELEMENT_SET_NO":999,"REV_AT_EPOCH":17691,"BSTAR":0.0034425771,"MEAN_MOTION_DOT":0.00037754,"MEAN_MOTION_DDOT":0}]
